ATLAS CENTAUR 2         
1 00694U 63047A   26166.23050385  .00001188  00000+0  12973-3 0  9998
2 00694  30.3577  10.3360 0545987 220.2600 135.6319 14.12515704145423
THOR AGENA D R/B        
1 00733U 64002A   26166.06380028  .00000134  00000+0  65200-4 0  9997
2 00733  99.1154 184.6813 0032421 336.8632  23.1090 14.34064856252250
SL-3 R/B                
1 00877U 64053B   26166.00322642  .00000087  00000+0  41162-4 0  9992
2 00877  65.0776  45.9165 0081033 261.7924  97.3980 14.61425908281019
SL-8 R/B                
1 02802U 67045B   26166.28666318  .00000152  00000+0  49569-4 0  9999
2 02802  74.0095 165.8082 0063514 150.7012 209.7733 14.45681307103121
SL-8 R/B                
1 03230U 68040B   26166.25369991  .00002465  00000+0  18119-3 0  9990
2 03230  74.0302 114.2446 0025963 267.7362  92.0854 15.03806963104673
OAO 2                   
1 03597U 68110A   26166.05394719  .00000173  00000+0  51733-4 0  9992
2 03597  34.9940  81.5896 0006228 258.6935 101.3056 14.47351305 33216
ISIS 1                  
1 03669U 69009A   26166.15575223  .00000027  00000+0  20421-4 0  9990
2 03669  88.4428 144.6230 1706169 252.3304  88.4907 11.30433645359541
SERT 2                  
1 04327U 70009A   26166.27912014 -.00000013  00000+0  39421-4 0  9996
2 04327  99.2842 104.0947 0003951 279.4136 202.8010 13.58739014793145
SL-3 R/B                
1 05118U 71028B   26166.14283638  .00043034  00000+0  36160-3 0  9991
2 05118  81.2336 290.8998 0013903 287.6507  72.3232 15.69569674  3927
ASTEX 1                 
1 05560U 71089A   26166.07217376  .00000406  00000+0  10308-3 0  9999
2 05560  92.6999 183.1747 0017791 112.4714 247.8379 14.50850327876420
SL-8 R/B                
1 05730U 71119B   26166.00208457  .00003021  00000+0  15670-3 0  9998
2 05730  73.8874 353.5586 0543781 299.9643  54.8579 14.39495188669482
OAO 3 (COPERNICUS)      
1 06153U 72065A   26166.10802711  .00000239  00000+0  53348-4 0  9996
2 06153  35.0055 102.2511 0007241 239.8871 136.3561 14.60059275860445
ATLAS CENTAUR R/B       
1 06155U 72065B   26166.11607953  .00000983  00000+0  13640-3 0  9996
2 06155  35.0013  94.6833 0032845 111.1338 249.2878 14.77917523855682
SL-8 R/B                
1 08459U 75112B   26166.23227069  .00000198  00000+0  73632-4 0  9996
2 08459  74.0594 199.4703 0016859 266.6320  93.2905 14.38245383645895
SL-3 R/B                
1 10114U 77057B   26166.21299456  .00009069  00000+0  17627-3 0  9991
2 10114  97.5829 342.6583 0005439 294.0821  65.9860 15.47847417683400
SEASAT 1                
1 10967U 78064A   26166.23369373  .00000214  00000+0  98126-4 0  9991
2 10967 108.0170 330.1881 0001882 240.4482 119.6476 14.46242077520614
SL-14 R/B               
1 11267U 79011B   26165.96239829  .00000453  00000+0  42008-4 0  9992
2 11267  82.5239   4.2658 0017530  92.3398 267.9829 14.92012487543286
SL-8 R/B                
1 11574U 79089B   26166.26297654  .00000176  00000+0  61068-4 0  9991
2 11574  74.0694 270.4193 0014942  54.9502 305.3054 14.42403257450170
SL-14 R/B               
1 11672U 80005B   26166.24079467  .00000419  00000+0  39701-4 0  9997
2 11672  82.5141 214.6866 0015314 192.4651 167.6191 14.91027494491023
SL-8 R/B                
1 12139U 81003B   26166.16965363  .00014405  00000+0  35263-3 0  9993
2 12139  82.9360 199.6463 0250624 198.2190 160.9947 15.14171025329415
SL-3 R/B                
1 12465U 81046B   26166.18059056  .00009465  00000+0  20456-3 0  9995
2 12465  81.2288 172.4861 0018730  44.4872 315.7872 15.44160413453460
SL-3 R/B                
1 12904U 81103B   26166.27923479  .00004107  00000+0  17711-3 0  9994
2 12904  81.1591  98.8747 0011929 322.9689  37.0718 15.22272497988076
SL-3 R/B                
1 13068U 82013B   26166.18571193  .00002781  00000+0  11727-3 0  9996
2 13068  81.1743  46.4074 0021245 207.7668 152.2432 15.22776193419184
SL-3 R/B                
1 13154U 82039B   26166.31256329  .00002957  00000+0  17629-3 0  9998
2 13154  81.1442 103.2524 0029064   2.4579 357.6784 15.10527933396375
SL-3 R/B                
1 13403U 82079B   26166.14882552  .00003804  00000+0  14682-3 0  9991
2 13403  81.1469  77.8985 0023544 192.4272 167.6385 15.25774366392557
SL-14 R/B               
1 13553U 82092B   26166.17812098  .00000364  00000+0  37984-4 0  9992
2 13553  82.5682  50.1833 0019837 342.1231 134.7398 14.86746567343418
SL-3 R/B                
1 13819U 83010B   26166.25060925  .00011927  00000+0  21722-3 0  9990
2 13819  81.1022 242.3494 0015623  69.0021 291.2895 15.49199888373035
SL-3 R/B                
1 14208U 83075B   26166.18524326  .00007950  00000+0  19729-3 0  9991
2 14208  97.6096 174.6076 0019143 236.7426 123.1986 15.40461073345152
COSMOS 1536             
1 14699U 84013A   26166.06272420  .00005156  00000+0  20475-3 0  9996
2 14699  82.5440  10.9613 0012723 303.8198  56.1827 15.25032602287452
SL-14 R/B               
1 14820U 84027B   26166.06027532  .00000383  00000+0  40871-4 0  9999
2 14820  82.5411 153.7118 0018360  16.0908 344.0888 14.86058331262099
